address_@type,address_addressRegion,@type,description,address_postalCode,telephone,address_addressLocality,name,image,address_streetAddress,@context
PostalAddress,CA,LocalBusiness,"Hours:Friday5:00pm - 7:00pmFor more information, please call. ",91706,(626) 671-0090,Baldwin Park,Shepherd's Pantry - Baldwin Park,https://www.foodpantries.org/gallery/39049_ca_91706_shepherds-pantry-baldwin-park_tmv.png,13020 Francissquito Ave,https://schema.org
PostalAddress,CA,LocalBusiness,"Food Pantry. Provide people with food assistance. Each person who comes seeking help sees a counselor who assesses their needs and arranges for their food allotment, as well as offering access to our extensive referral program. Pantry Hours:Tuesday5:00pm - 7:00pmHomeless Food DistributionMonday, Wednesday, Friday11:00am - 12:00pmFor more information, please call....",91706,(626) 305-0392,Irwindale,Shepherd's Pantry - Irwindale Distribution Center,https://www.foodpantries.org/gallery/no_photo_8.jpg,1418 Arrow Highway,https://schema.org
PostalAddress,CA,LocalBusiness,Hours:1st &amp; 3rd Friday of the month 1:00pm - 3:00pm 1st &amp; 3rd Sunday of the month 1:00pm - 3:00pm Bread Distribution HourThursday 10:00am - 1:00pm Serves: La Puente residents and all surrounding cities...,91746,(626) 917-8814,La Puente,La Puente Church of Christ,https://www.foodpantries.org/gallery/no_photo_9.jpg,15124 Amar Rd,https://schema.org
PostalAddress,CA,LocalBusiness,"Distributes groceries.Hours:Tuesday and Thursday (except holidays)For more information, please call....",91731,(626) 579-2190,El Monte,Our Saviour Center Food Pantry,https://www.foodpantries.org/gallery/no_photo_6.jpg,4368 Santa Anita Ave,https://schema.org
PostalAddress,CA,LocalBusiness,"Hours:Tuesday and Thursday 10:00am to 1:00pmUnless it is a holiday.  Requirements: Picture ID requested.For more information, please call. ...",91731,(626) 579-2190,El Monte,Our Saviour Center Food Pantry,https://www.foodpantries.org/gallery/no_photo_1.jpg,4368 Santa Anita Ave.,https://schema.org
PostalAddress,CA,LocalBusiness,"Distribution Hours:Saturday 7:00am - 9:00am First come, first serve basis. No ID, proof of income, utility bill required. We are on the corner of Hollenbeck Avenue and Rowland Street. Ample parking available behind the building. Accessible driveway is on the north side of Rowland Street. Gate will be open behind the building. Clients receive an assorted box of groceries.  Donations are welcome 24/7, 365 days a year. Hablamos EspaÃ±ol.Hablamos EspaÃ±ol.For more information, please call...",91723,(626) 915-5300,Covina,Elim Community Pantry,https://www.foodpantries.org/gallery/no_photo_6.jpg,550 South Hollenbeck Avenue,https://schema.org
PostalAddress,CA,LocalBusiness,"Hours: Tuesday 10:00am to 1:00pm Get there early to get in line. Canned food and other groceries. For more information, please call.",90706,(562) 867-2337,Bellflower,St Bernard Church Food Pantry,https://www.foodpantries.org/gallery/no_photo_8.jpg,9627 Beach St,https://schema.org
PostalAddress,CA,LocalBusiness,"For more information, please call.",90706,(562) 866-1812,Bellflower,Bethany Church,https://www.foodpantries.org/gallery/38349_bethany-church_pgy.png,17054 Bixby Ave,https://schema.org
PostalAddress,CA,LocalBusiness,Food Hours: Every 2nd and 4th Wednesday 7:45pm  Clothing Distribution: Hours:Every 1st and 3rd Wednesday 10:00am - 12:00pm,90706,(562) 866-8283,Bellflower,The Lord's Church,https://www.foodpantries.org/gallery/38350_the-lords-church_wqf.png,9740 Flower Street,https://schema.org
PostalAddress,CA,LocalBusiness,"Food Distribution:  Bread, soft drinks, Misc food available.Hours:8:30pm - 9:00pmAfter Bible study at 7:15 PM First come , first served.   Back of the Church. For more information, please call. ",90706,(562) 925-5093,Bellflower,Hosanna Chapel of Bellflower,https://www.foodpantries.org/gallery/38351_hosanna-chapel-of-bellflower_wuy.jpg,16705 Bellflower Blvd,https://schema.org
PostalAddress,CA,LocalBusiness,"Food Distribution Hours:Every Thursday 8:00am to 10:00amCanned foods, bread and meats.",90706,(562) 920-7796,Bellflower,St Dominic Savio Church,https://www.foodpantries.org/gallery/no_photo_3.jpg,13400 Bellflower BLVD,https://schema.org
PostalAddress,CA,LocalBusiness,"Hours: Thursday10:00amFor more information, please call.",90706,(562) 925-4888,Bellflower,Bellwood Baptist Church,https://www.foodpantries.org/gallery/no_photo_8.jpg,17614 Virginia Ave,https://schema.org
PostalAddress,CA,LocalBusiness,"Hours: The 2nd and 4th Thursday 4:00am - 6:00pmFor more information, please call.",90706,(562) 866-6668,Bellflower,St George's Church,https://www.foodpantries.org/gallery/no_photo_8.jpg,15725 Cornuta Ave,https://schema.org
PostalAddress,CA,LocalBusiness,"Hours: Friday 9:00am - 10:30am  Sign in at 8:am Canned goods, produce and groceries",90706,(562) 867-0714,Bellflower,Holy Redeemer Church,https://www.foodpantries.org/gallery/38356_holy-redeemer-church_gaf.jpg,14515 Blain ave,https://schema.org
PostalAddress,CA,LocalBusiness,"Hours: Friday 3:00pm - 4:00pm Groceries, dry, canned goods, bread, frozen meat. For more information, please call.",90706,(562) 804-4778,Bellflower,Rosewood Church,https://www.foodpantries.org/gallery/38357_rosewood-church_wqg.jpg,10115 Rose St,https://schema.org
PostalAddress,CA,LocalBusiness,"Food Distribution Hours:  Last Saturday of every month12:00pm to 2:00pmFood available and lunch until gone For more information, please call. ",90706,(562) 644-2343,Bellflower,Warrior Center - Palm Street Park,https://www.foodpantries.org/gallery/38362_warrior-center-palm-street-park_pvz.png,14515 Blaine Ave.,https://schema.org
PostalAddress,CA,LocalBusiness,"Hours:Tuesday, Wednesday, Thursday 9:00am - 12:00pm; 1:30pm - 5:00pm Closed on Holidays BTAC provides clients a variety of programs and services including: Groceries from BTAC's Food Pantry. Daily sack lunches for the homeless. Assistance with utility bills. Transportation assistance. ID/License replacement program. Limited medical assistance. Limited emergency shelter, via a voucher program with cooperating businesses in the area. Shower facilities for the homeless. Laundry facilities for the homeles",91506,(818) 848-2822,Burbank,Burbank Temporary Aid Center,https://www.foodpantries.org/gallery/36348_burbank-temporary-aid-center_tti.jpg,1304 W Burbank Blvd,https://schema.org
PostalAddress,CA,LocalBusiness,"Our Food Security Program helps some 4,000 no and low income residents of the Inland Valley access high-quality, healthy food resources each month with 5 program centers located in Pomona, Ontario, San Dimas, Claremont and South Pomona plus 2 once/month food distributions in Upland and Chino.What We DoAt our sites,clients are provided with a 4-5 day supply of food every 30 days (homeless every two weeks). Families may also receive fresh produce through our partnership with Amy's Farm (a working farm that donates a sizeable sha",91711,(909) 622-3806,Claremont,Claremont Joslyn Senior Center,https://www.foodpantries.org/gallery/no_photo_9.jpg,660 N. Mountain Ave.,https://schema.org
PostalAddress,CA,LocalBusiness,"Hours:Friday4:00pmFor more information, please call. ...",,(909) 593-7070,Pomona,New Life Community,https://www.foodpantries.org/gallery/no_photo_4.jpg,275 E Foothill Blvd,https://schema.org
PostalAddress,CA,LocalBusiness, The Human Services Program is devoted to providing programs and/or services that support individuals and families in resolving problems and improving their quality of life.  Some of our services include:      Uplifting the community by providing hunger relief through our bi-monthly Feeding our Friends distribution of food to needy families.     Implementing programs and/or services that satisfy gaps of need for the under-served.     Partnering with community leaders and organizations through the annual Christmas Collabo...,91767,(909) 621-5369,Pomona,CUSH Foundation,https://www.foodpantries.org/gallery/no_photo_8.jpg,2343 N. San Antonio Avenue,https://schema.org
PostalAddress,CA,LocalBusiness,"Monthly assistance food emergency program. Provides monthly assistance to homeless individuals or families and once-every-two-months assistance to those with an address. Participants are given a box of food generally including meat, bread, eggs, and miscellaneous foodstuffs, depending on availability. Bus vouchers are also available.Hours: Mondays through Fridays 8am to 12 noon, 1pm to 4pm. ...",91767,(909) 623-1579,Pomona,Pomona Salvation Army Emergency Food,https://www.foodpantries.org/gallery/no_photo_10.jpg,490 E. La Verne Ave.,https://schema.org
PostalAddress,CA,LocalBusiness,"Foothill Family Shelter offers incredible services for homeless and low-income families. There are several ways to get involved; we have many exciting volunteer opportunities and we are always in need of canned food, diapers, wipes and hygiene products. Serves: The cities of Upland, Rancho Cucamonga, Montclair,  and Ontario in San Bernardino County and Pomona and Claremont in Los  Angeles County. HoursTuesday - Friday 9:00am - 5:00pm (closed 12-1 for lunch)For more information, please ca...",91786,(909) 920-0453,Upland,Foothill Family Shelter,https://www.foodpantries.org/gallery/no_photo_10.jpg,"1501 W. 9 Street, ",https://schema.org
PostalAddress,CA,LocalBusiness,"Hours:Monday - Thurday9:00am - 3:00pmEmergency Food Assistance; location in Ontario, Pomona, Claremont and San DimasEmergency Housing Program. For more information, please call. ...",91768,(909) 622-3806,Pomona,Inland Valley Hope Partners,https://www.foodpantries.org/gallery/no_photo_2.jpg,1753 N. Park Ave.,https://schema.org
PostalAddress,CA,LocalBusiness,"Provides food for Low income, Senior, Disabled and the Homeless. Hours: Monday 4:00pm to 7:00pm Thursday 10:00pm to 1:00pmRequirements: Please bring a valid ID and a recent piece of mail with current address.Make Donation Checks Payable toACTION Food Pantryand mail to: &nbsp;&nbsp;&nbsp;&nbsp; 17880 E. Covina Blvd.&nbsp;&nbsp;&nbsp;&nbsp; Covina, Ca. 91722&nbsp; For more information, please call. ",91722,(626) 319-0554,Covina,Action Food Pantry - Grace Lutheran Church,https://www.foodpantries.org/gallery/36109_action-food-pantry_fvi.jpg,17880 E. Covina Blvd.,https://schema.org
PostalAddress,CA,LocalBusiness,"Distribution Hours:Saturday 7:00am - 9:00am First come, first serve basis. No ID, proof of income, utility bill required. We are on the corner of Hollenbeck Avenue and Rowland Street. Ample parking available behind the building. Accessible driveway is on the north side of Rowland Street. Gate will be open behind the building. Clients receive an assorted box of groceries.  Donations are welcome 24/7, 365 days a year. Hablamos EspaÃ±ol.Hablamos EspaÃ±ol.For more information, please call",91723,(626) 915-5300,Covina,Elim Community Pantry,https://www.foodpantries.org/gallery/37425_elim-community-pantry_wln.jpg,550 South Hollenbeck Avenue,https://schema.org
PostalAddress,CA,LocalBusiness,"The people who utilize our services come from all walks of life. We all experience difficult times in our lives and sometimes we need a helping hand. More than 50% of the people we serve are experiencing a very temporary situation and just need a little help to get them through a rough time. Our volunteers genuinely love helping people and go out of their way to try to meet the needs of everyone we serve. The most rewarding part is the smiles and expressions of gratitude from those we serve.Hours:Wednesday, Thursday5:00pm - ...",91740,(626) 852-7630,Glendora,Shepherd's Pantry,https://www.foodpantries.org/gallery/no_photo_10.jpg,657 E. Arrow Highway,https://schema.org
PostalAddress,CA,LocalBusiness,"We are open to the public  for food and clothing service.Hours:Wednesday and Thursday5:00pm - 7:00pm You must have a residence address in  one of the ten (10) cities we serve: Azusa, Baldwin Park, Claremont,  Covina, Glendora, Hacienda Heights, La Puente, La Verne, San Dimas &  West Covina. Please bring proof of residence address on your first  visit, such as a driver's license or utility bill. There is no charge  for our services and you may return once per month for up to six months:  extended programs are...",91740,(626) 852-7630,Glendora,Shepherd's Pantry Glendora,https://www.foodpantries.org/gallery/no_photo_9.jpg,657 E. Arrow Highway,https://schema.org
PostalAddress,CA,LocalBusiness,"Our Food Security Program helps some 4,000 no and low income residents of the Inland Valley access high-quality, healthy food resources each month with 5 program centers located in Pomona, Ontario, San Dimas, Claremont and South Pomona plus 2 once/month food distributions in Upland and Chino.What We DoAt our sites,clients are provided with a 4-5 day supply of food every 30 days (homeless every two weeks). Families may also receive fresh produce through our partnership with Amy's Farm (a working farm that donates a sizeable...",91773,(909) 599-1103,San Dimas,San Dimas Center,https://www.foodpantries.org/gallery/no_photo_2.jpg,110 E. Third Street,https://schema.org
PostalAddress,CA,LocalBusiness,Hours:1st &amp; 3rd Friday of the month 1:00pm - 3:00pm 1st &amp; 3rd Sunday of the month 1:00pm - 3:00pm Bread Distribution HourThursday 10:00am - 1:00pm Serves: La Puente residents and all surrounding cities...,91746,(626) 917-8814,La Puente,La Puente Church of Christ,https://www.foodpantries.org/gallery/no_photo_3.jpg,15124 Amar Rd,https://schema.org
PostalAddress,CA,LocalBusiness,"Food Pantry. Provide people with food assistance. Each person who comes seeking help sees a counselor who assesses their needs and arranges for their food allotment, as well as offering access to our extensive referral program. Pantry Hours:Tuesday5:00pm - 7:00pmHomeless Food DistributionMonday, Wednesday, Friday11:00am - 12:00pmFor more information, please call....",91706,(626) 305-0392,Irwindale,Shepherd's Pantry - Irwindale Distribution Center,https://www.foodpantries.org/gallery/no_photo_1.jpg,1418 Arrow Highway,https://schema.org
PostalAddress,CA,LocalBusiness,"Food pantry which provides groceries to the needy.Hours:Mondays, Wednesdays and Fridays 9:00am - 11:45am.",90232,310-838-2477,Culver City,St. Augustine's S.A.V.E.S. Food Pantry,https://www.foodpantries.org/gallery/1951_ca-st_augustines_saves_food_pantry_nlt.png,3850 Jasmine Ave.,https://schema.org
PostalAddress,CA,LocalBusiness,"Food pantry providing groceries to the needy. Hours:Tuesday and Thursday 9:00am - 12:00pm and 1:00pm - 3:00pmFor more information, please call. ...",90066,(310) 390-5034,Los Angeles,St. Gerard's Social Service Food Pantry,https://www.foodpantries.org/gallery/no_photo_6.jpg,4439 Inglewood Blvd.,https://schema.org
PostalAddress,CA,LocalBusiness,Church food pantry for the needy in Los Angeles. Hours:Sunday 12:30pm - 2:00pm....,90025,310-473-3135,Los Angeles,Faith Tabernacle Church Pantry,https://www.foodpantries.org/gallery/no_photo_9.jpg,2147 Purdue Ave.,https://schema.org
PostalAddress,CA,LocalBusiness,"The WEST pantry is located on the south side of Pico Blvd. one-half block west of Robertson Ave. Metered street parking is available on Pico Blvd. and surrounding streets as well as in a parking lot located just a few doors west of the building.  Pantry Hours: Monday - Thursday 10:00am - 1:30pmSunday9:00am - 12:00pmFor more information, please call.   ...",90035,(310) 288-0286,Los Angeles,SOVA West Food Pantry,https://www.foodpantries.org/gallery/no_photo_10.jpg,8846 W. Pico Blvd,https://schema.org
PostalAddress,CA,LocalBusiness,"For more information, please call....",90291,310 822-5410,Oakland,California Food and Justice Coalition,https://www.foodpantries.org/gallery/no_photo_6.jpg,398 60th St.,https://schema.org
PostalAddress,CA,LocalBusiness,"Food pantry which provides groceries in InglewoodFood Pantry open for those in need: 10am to Noon, Tue and Fri. Donations can be dropped off between 9am to Noon, Tue and Fri....",90302,310-677-5597,Ingelwood,Food Pantry LAX,https://www.foodpantries.org/gallery/no_photo_8.jpg,355 E. Beach St.,https://schema.org
PostalAddress,CA,LocalBusiness,"Food Distribution Hour:Saturday9:00am to 12:00pmFor more information, please call.",90241,(562) 862-2438,Downey,Food Help,https://www.foodpantries.org/gallery/38364_food-help_egn.png,10909 New Street,https://schema.org
PostalAddress,CA,LocalBusiness,"Food Distribution Hours:Every Thursday 8:00am to 10:00amCanned foods, bread and meats....",90706,(562) 920-7796,Bellflower,St Dominic Savio Church,https://www.foodpantries.org/gallery/no_photo_9.jpg,13400 Bellflower BLVD,https://schema.org
PostalAddress,CA,LocalBusiness,"Food Distribution Hours:  Last Saturday of every month12:00pm to 2:00pmFood available and lunch until gone For more information, please call. ...",90706,(562) 644-2343,Bellflower,Warrior Center - Palm Street Park,https://www.foodpantries.org/gallery/no_photo_5.jpg,14515 Blaine Ave.,https://schema.org
PostalAddress,CA,LocalBusiness,"Hours: Friday 9:00am - 10:30am  Sign in at 8:am Canned goods, produce and groceries...",90706,(562) 867-0714,Bellflower,Holy Redeemer Church,https://www.foodpantries.org/gallery/no_photo_6.jpg,14515 Blain ave,https://schema.org
PostalAddress,CA,LocalBusiness,"Hours: The 2nd and 4th Thursday 4:00am - 6:00pmFor more information, please call....",90706,(562) 866-6668,Bellflower,St George's Church,https://www.foodpantries.org/gallery/no_photo_4.jpg,15725 Cornuta Ave,https://schema.org
PostalAddress,CA,LocalBusiness,Food Hours:Last names A-K 1st and 4th Friday of the month. Last names L-V 2nd and 4th Friday of the month  Celebrate recovery at 6:pm...,90723,(562) 533-6820,Paramount,Emmanual Church,https://www.foodpantries.org/gallery/no_photo_9.jpg,15941 Virginia Ave,https://schema.org
PostalAddress,CA,LocalBusiness,"Distributes groceries.Hours:Tuesday and Thursday (except holidays)For more information, please call.",91731,(626) 579-2190,El Monte,Our Saviour Center Food Pantry,https://www.foodpantries.org/gallery/no_photo_6.jpg,4368 Santa Anita Ave,https://schema.org
PostalAddress,CA,LocalBusiness,"Hours:Tuesday and Thursday 10:00am to 1:00pmUnless it is a holiday.  Requirements: Picture ID requested.For more information, please call. ",91731,(626) 579-2190,El Monte,Our Saviour Center Food Pantry,https://www.foodpantries.org/gallery/35424_our-saviour-center_fuh.png,4368 Santa Anita Ave.,https://schema.org
PostalAddress,CA,LocalBusiness,"The Los Angeles Regional Food Bank provides food to low-income seniors (60+). Requirements: Income verification and picture identification are required to receive the food.Food Pantry Hours:4th Monday of every month9:00am - 11:00amFor more information, please call. ...",91733,(626) 575-5431,South El Monte,San Gabriel Valley Service Center ,https://www.foodpantries.org/gallery/no_photo_9.jpg,1441 Santa Anita Avenue,https://schema.org
PostalAddress,CA,LocalBusiness,"Hours:Friday5:00pm - 7:00pmFor more information, please call. ...",91706,(626) 671-0090,Baldwin Park,Shepherd's Pantry - Baldwin Park,https://www.foodpantries.org/gallery/no_photo_3.jpg,13020 Francissquito Ave,https://schema.org
PostalAddress,CA,LocalBusiness,"Regional Native American Food Bank serving all communities throughout  Southern California. We distribute 100 lb family pack program for  agencies support, aide with food distributions to local pantries,  homeless outreaches, support local government with emergency food  source, youth organizations,  and veteran support. HoursMonday - Friday8:00am - 4:00pmSaturday 8:00am - 2:00pmOpen most holidays.For more information, please call. ...",91733,(626) 442-4273,South El Monte,God Provides Food Bank - Native American Food Bank,https://www.foodpantries.org/gallery/no_photo_8.jpg,2453 Troy Ave.,https://schema.org
PostalAddress,CA,LocalBusiness,"Food Pantry. Provide people with food assistance. Each person who comes seeking help sees a counselor who assesses their needs and arranges for their food allotment, as well as offering access to our extensive referral program. Pantry Hours:Tuesday5:00pm - 7:00pmHomeless Food DistributionMonday, Wednesday, Friday11:00am - 12:00pmFor more information, please call....",91706,(626) 305-0392,Irwindale,Shepherd's Pantry - Irwindale Distribution Center,https://www.foodpantries.org/gallery/no_photo_7.jpg,1418 Arrow Highway,https://schema.org
PostalAddress,CA,LocalBusiness,Hours:1st &amp; 3rd Friday of the month 1:00pm - 3:00pm 1st &amp; 3rd Sunday of the month 1:00pm - 3:00pm Bread Distribution HourThursday 10:00am - 1:00pm Serves: La Puente residents and all surrounding cities...,91746,(626) 917-8814,La Puente,La Puente Church of Christ,https://www.foodpantries.org/gallery/no_photo_4.jpg,15124 Amar Rd,https://schema.org
PostalAddress,CA,LocalBusiness,"Clients must live in certain areas to get services (Glendale, Burbank, Eagle Rock, Highland Park, Atwater, and part of Sunland) call and ask if they serve your zip code. Provides immigration assistance and food pantry.Requirements: Bring picture ID, SS card, proof of address, children's birth certificates, and proof of income.Hours:Monday - Friday10:00am - 12:00pm; 1:15pm - 3:30pmFor more information, please call. ",91204,(213) 318-5716,Glendale,Catholic Charities Immigration Services - Glendale,https://www.foodpantries.org/gallery/38182_catholic_cha-Glenda-91204_qso.png,4322 San Fernando Road,https://schema.org
PostalAddress,CA,LocalBusiness,"Hours:Tuesday, Wednesday, Thursday 9:00am - 12:00pm; 1:30pm - 5:00pm Closed on Holidays BTAC provides clients a variety of programs and services including: Groceries from BTAC's Food Pantry. Daily sack lunches for the homeless. Assistance with utility bills. Transportation assistance. ID/License replacement program. Limited medical assistance. Limited emergency shelter, via a voucher program with cooperating businesses in the area. Shower facilities for the homeless. Laundry facilities for the homeles...",91506,(818) 848-2822,Burbank,Burbank Temporary Aid Center,https://www.foodpantries.org/gallery/no_photo_5.jpg,1304 W Burbank Blvd,https://schema.org
PostalAddress,CA,LocalBusiness,"We are a program that cooks and delivers free meals to the homes of persons who are home bound with life-threatening illness, We depend on volunteers for growing produce in our gardens, cooking and packing our meals, as well as office projects and special events; volunteers must make an appointment at the phone number listed.Office Hours:Monday8:00am - 4:00pmSunday8:00am - 12:00pmFor more information, please call. ...",90038,(323) 845-1800,Los Angeles,Project Angel Food,https://www.foodpantries.org/gallery/no_photo_7.jpg,922 Vine Street,https://schema.org
PostalAddress,CA,LocalBusiness,"Community Distribution Center (CDC) is an Emergency Feeding Organization (EFO) providing hunger relief to families living in poverty in the San Fernando Valley. CDC solicits and distributes more than 3 million pounds of food and non-food items annually impacting nearly18,000 people. CDC operates out of a large facility (former grocery store) located in Sun Valley, CA -we are open six days a week and provides one shopping cart full of approximately 200 pounds of food per visit, providing sustenance for a family of seven for a week.  Currently...",91352,(818) 759-0616,Sun Valley,Community Distribution Center,https://www.foodpantries.org/gallery/no_photo_2.jpg,11350 Saticoy Street,https://schema.org
PostalAddress,CA,LocalBusiness,"Hours:Monday - Friday9:00am - 1:00pmPLEASE NOTE THAT THE ENTRANCE IS ON THE TROOST SIDE OF THE PARKING LOT ONLYFor more information, please call....",91604,(818) 980-1657,Studio City,North Hollywood Interfaith Food Pantry,https://www.foodpantries.org/gallery/no_photo_1.jpg,4390 Colfax Avenue,https://schema.org
PostalAddress,CA,LocalBusiness,"We are open to the public  for food and clothing service.Hours:Wednesday and Thursday5:00pm - 7:00pm You must have a residence address in  one of the ten (10) cities we serve: Azusa, Baldwin Park, Claremont,  Covina, Glendora, Hacienda Heights, La Puente, La Verne, San Dimas &  West Covina. Please bring proof of residence address on your first  visit, such as a driver's license or utility bill. There is no charge  for our services and you may return once per month for up to six months:  extended programs are",91740,(626) 852-7630,Glendora,Shepherd's Pantry Glendora,https://www.foodpantries.org/gallery/34186_ca_91740_shepherds-pantry-glendora_yve.jpg,657 E. Arrow Highway,https://schema.org
PostalAddress,CA,LocalBusiness,"The people who utilize our services come from all walks of life. We all experience difficult times in our lives and sometimes we need a helping hand. More than 50% of the people we serve are experiencing a very temporary situation and just need a little help to get them through a rough time. Our volunteers genuinely love helping people and go out of their way to try to meet the needs of everyone we serve. The most rewarding part is the smiles and expressions of gratitude from those we serve.Hours:Wednesday, Thursday5:00pm - ",91740,(626) 852-7630,Glendora,Shepherd's Pantry,https://www.foodpantries.org/gallery/39046_ca_91740_shepherds-pantry_nfi.jpg,657 E. Arrow Highway,https://schema.org
PostalAddress,CA,LocalBusiness,"Our Food Security Program helps some 4,000 no and low income residents of the Inland Valley access high-quality, healthy food resources each month with 5 program centers located in Pomona, Ontario, San Dimas, Claremont and South Pomona plus 2 once/month food distributions in Upland and Chino.What We DoAt our sites,clients are provided with a 4-5 day supply of food every 30 days (homeless every two weeks). Families may also receive fresh produce through our partnership with Amy's Farm (a working farm that donates a sizeable...",91773,(909) 599-1103,San Dimas,San Dimas Center,https://www.foodpantries.org/gallery/no_photo_1.jpg,110 E. Third Street,https://schema.org
PostalAddress,CA,LocalBusiness,"Provides food for Low income, Senior, Disabled and the Homeless. Hours: Monday 4:00pm to 7:00pm Thursday 10:00pm to 1:00pmRequirements: Please bring a valid ID and a recent piece of mail with current address.Make Donation Checks Payable toACTION Food Pantryand mail to: &nbsp;&nbsp;&nbsp;&nbsp; 17880 E. Covina Blvd.&nbsp;&nbsp;&nbsp;&nbsp; Covina, Ca. 91722&nbsp; For more information, please call. ...",91722,(626) 319-0554,Covina,Action Food Pantry - Grace Lutheran Church,https://www.foodpantries.org/gallery/no_photo_8.jpg,17880 E. Covina Blvd.,https://schema.org
PostalAddress,CA,LocalBusiness,"Distribution Hours:Saturday 7:00am - 9:00am First come, first serve basis. No ID, proof of income, utility bill required. We are on the corner of Hollenbeck Avenue and Rowland Street. Ample parking available behind the building. Accessible driveway is on the north side of Rowland Street. Gate will be open behind the building. Clients receive an assorted box of groceries.  Donations are welcome 24/7, 365 days a year. Hablamos EspaÃ±ol.Hablamos EspaÃ±ol.For more information, please call...",91723,(626) 915-5300,Covina,Elim Community Pantry,https://www.foodpantries.org/gallery/no_photo_8.jpg,550 South Hollenbeck Avenue,https://schema.org
PostalAddress,CA,LocalBusiness,"Hours:Friday4:00pmFor more information, please call. ...",,(909) 593-7070,Pomona,New Life Community,https://www.foodpantries.org/gallery/no_photo_10.jpg,275 E Foothill Blvd,https://schema.org
PostalAddress,CA,LocalBusiness,"Our Food Security Program helps some 4,000 no and low income residents of the Inland Valley access high-quality, healthy food resources each month with 5 program centers located in Pomona, Ontario, San Dimas, Claremont and South Pomona plus 2 once/month food distributions in Upland and Chino.What We DoAt our sites,clients are provided with a 4-5 day supply of food every 30 days (homeless every two weeks). Families may also receive fresh produce through our partnership with Amy's Farm (a working farm that donates a sizeable...",91761,(909) 622-3806,Pomona, Inland Valley Hope Partners - Sova Program Center,https://www.foodpantries.org/gallery/no_photo_2.jpg,1753 N Park Ave,https://schema.org
PostalAddress,CA,LocalBusiness,"Provides food and other resources to families in need.&nbsp; For more information, please call. ",90716,(562) 860-9097,Hawaiian Gardens,Hawaiian Gardens Food,https://www.foodpantries.org/gallery/no_photo_1.jpg,22121 Norwalk Blvd,https://schema.org
PostalAddress,CA,LocalBusiness,"Food pantry which provides groceries in InglewoodFood Pantry open for those in need: 10am to Noon, Tue and Fri. Donations can be dropped off between 9am to Noon, Tue and Fri.",90302,310-677-5597,Ingelwood,Food Pantry LAX,https://www.foodpantries.org/gallery/no_photo_5.jpg,355 E. Beach St.,https://schema.org
PostalAddress,CA,LocalBusiness,"Food Pantry. Provide people with food assistance. Each person who comes seeking help sees a counselor who assesses their needs and arranges for their food allotment, as well as offering access to our extensive referral program. Pantry Hours:Tuesday5:00pm - 7:00pmHomeless Food DistributionMonday, Wednesday, Friday11:00am - 12:00pmFor more information, please call.",91706,(626) 305-0392,Irwindale,Shepherd's Pantry - Irwindale Distribution Center,https://www.foodpantries.org/gallery/37907_corys_kitche-Irwind-91706_lsa.png,1418 Arrow Highway,https://schema.org
PostalAddress,CA,LocalBusiness,Hours:1st &amp; 3rd Friday of the month 1:00pm - 3:00pm 1st &amp; 3rd Sunday of the month 1:00pm - 3:00pm Bread Distribution HourThursday 10:00am - 1:00pm Serves: La Puente residents and all surrounding cities,91746,(626) 917-8814,La Puente,La Puente Church of Christ,https://www.foodpantries.org/gallery/38847_ca_91744_la-puente-church-of-christ_hoa.jpg,15124 Amar Rd,https://schema.org
PostalAddress,CA,LocalBusiness,"Provides a food pantry.  Our food bank is designed assist and/or  supplement food reserves for families that are barely meeting their  basic needs. Most of what we offer is canned food. When available, we  also give away toys, household essentials, used clothing, and other home  items. Hours;The 4th Saturday of the month8:30am - 10:00am Date:&nbsp;&nbsp;",92707,(562) 619-0467,Lakewood,SSS Good Samaritan Association - Calvary Hall,https://www.foodpantries.org/gallery/24232_sss_good_samaritan_association_92706_jhc.jpg,5035 Hedda St,https://schema.org
PostalAddress,CA,LocalBusiness,Hours:The 1st Saturday of every month9:00am to 11:00am Come early to sign in.  Clothing also available.,90713,(562) 867-3198,Lakewood,The Journey @ Mayfair Church,https://www.foodpantries.org/gallery/no_photo_4.jpg,6150 Bellflower Blvd,https://schema.org
PostalAddress,CA,LocalBusiness,"Hours:Saturday9:00am to 11:00amFor more information, please call.",90713,(562) 425-1219,Lakewood,Lakewood First Unitd Methodist Church,https://www.foodpantries.org/gallery/38360_lakewood-first-unitd-methodist-church_wgw.jpg,4300 Bellflower Blvd,https://schema.org
PostalAddress,CA,LocalBusiness,"Hours:The 3rd Saturday of the month11:00am to 12:00pmFor more information, please call.",90713,(562) 925-0251,Lakewood,Cityline Church,https://www.foodpantries.org/gallery/38361_cityline-church_fni.png,6236 Woodruff Ave,https://schema.org
PostalAddress,CA,LocalBusiness,"Hours:Monday  9:00am - 10:00am Food Bags, Meal/ClothesFor more information, please call. ",93534,(661) 942-3222,Lancaster,St. Vincent de Paul Lancaster,https://www.foodpantries.org/gallery/33921_st-vincent-de-paul-lancaster_wbq.jpg,45058 Trevor Avenue,https://schema.org
PostalAddress,CA,LocalBusiness,"Hours:12:00pm Sandwich Shoppe, Hot MealFor more information, please call.",93534,(661) 942-0419,Lancaster,United Methodist Church,https://www.foodpantries.org/gallery/33922_kehneinesg.jpg,918 West Avenue J,https://schema.org
PostalAddress,CA,LocalBusiness,"Provides: Food pantry, hot meals, infant eeds, hygiene kits, clothing and classes.Hours:Tuesday10:00am - 1:00pmWednesday10:0am (Spanish Seeking)1:00ampm (Orientation)Thursday10:00am - 1:00pmDonations: Are accepted Monday through Friday from 9:00am - 3:300pmFor more information, please call.",93534,(661) 940-5272,Lancaster,Grace Resource Center,https://www.foodpantries.org/gallery/33491_grace-resource-center_fmh.jpg,45134 N. Sierra Highway,https://schema.org
PostalAddress,CA,LocalBusiness,"Helping Hands Feeding Children has a food drive.Hours Every 2nd and 4th Saturday of the month 10:00am - 11:00amThe Office Hours Tuesday-Friday 8:30am - 4:30pmFor more information, please call. ",93534,(661) 317-5915,Lancaster,Helping Hands Feeding Children,https://www.foodpantries.org/gallery/36130_helping-hands-feeding-children_oui.png,154 East Ave I,https://schema.org
PostalAddress,CA,LocalBusiness,DCCI Helps is a community outreach program that at the moment services the whole Antelope Valley area. Hours:The 3rd Saturday of the monthPlease call for time We do emergency/ clothing once a week for families in need and individuals with proof of residence in the antelope valley area. Telephone appointments only. We also have a ton of other resources once you fill out the application of needs that you require.Business Hours:Monday - Friday 9:00am - 2:00pm,93534,(661) 582-8177,Lancaster,Destiny Christian Center International,https://www.foodpantries.org/gallery/no_photo_9.jpg,44628 10th Street W,https://schema.org
PostalAddress,CA,LocalBusiness,"Hours:Soup Kitchen, Hot Meal6:00pm - 7:00pmFor more information, please call. ...",93550,(661) 266-3400,Palmdale,Grace's Palmdale Soup Kitchen at Desert Winds Church,https://www.foodpantries.org/gallery/no_photo_2.jpg,38117 13th Street E,https://schema.org
PostalAddress,CA,LocalBusiness,"Provides food pantry and mobile services.Hours:Monday through Thursday9:00am - 12:00pm The third Friday of the month (reserved for senior citizens)9:00am to 12:00pmThe first Saturday of the month (reserved for working clients)10:00am to 12:00pm Requirements: Must be a resident of the Santa Clarita Valley, with income no greater than 150% of the poverty level as defined in the Emergency Food Assistance Program, and be actively seeking employment unless disabled or retired. Requires ID and d...",91321,(661) 255-5001,Newhall,Santa Clarita Valley Food Pantry,https://www.foodpantries.org/gallery/no_photo_6.jpg,24133 Railroad Avenue,https://schema.org
PostalAddress,CA,LocalBusiness,Free Food Distribution HoursSATURDAY 8:30am to 10:30am  No information will not be asked! Come and get your free grocery bag!...,91340,(818) 403-6432,San Fernando,Lighthouse Foursquare,https://www.foodpantries.org/gallery/no_photo_1.jpg,622 N Maclay Ave.,https://schema.org
PostalAddress,CA,LocalBusiness,"For more information, please call. ",90807,(562) 424-8412,Long Beach,Assemblies of God,https://www.foodpantries.org/gallery/no_photo_4.jpg,4103 Cherry Street,https://schema.org
PostalAddress,CA,LocalBusiness,This food pantry provides a great selection of fresh fruits and vegetables.  Groceries are provided to families and individuals. The School Food Pantry  Every 1st &amp; 3rd Friday of the monthat Stevenson Elementary School515 Lime AvenueLong Beach CA 90802NOTE:&nbsp; Pantry services will be closed when school is NOT is sessionCommunity Food PantryEvery 4th Wednesday of the monthat Lilly of the Valley Church 3056 Sante Fe Ave Long Beach CA&nbsp; 90810,90802,562-612-5001,Long Beach,Help Me Help You,https://www.foodpantries.org/gallery/32485_help-me-help-you-at-st-lukes_mcb.jpg,515 lime Ave / Stevenson Elementary School,https://schema.org
PostalAddress,CA,LocalBusiness,BREAKFAST:Served EVERY DAY 7:00-8:00 amLUNCH:Served every Saturday 11:30 am-12:30 pm &amp; the last Sunday of every month 11:30 am-12:30 pmDINNER:Served every Monday- Friday 4:30-5:30 pmThe third Sunday of every month at 3:00 pm three Mother Teresa nuns and Father Scott will serve a wonderful meal.Other Services,90802,562-432-1440,Long Beach,Christian Outreach In Action,https://www.foodpantries.org/gallery/37096_ca_90802_christian-outreach-in-action_uuy.png,515 East Third Street,https://schema.org
PostalAddress,CA,LocalBusiness,"Office Hours:Monday through Friday9:00am - 12:00pm1:30pm - 3:30pmFood  stamps  eligibility  worker  on-site:  THURSDAY  1:30pm to 3:30pm. Utility assistance, food, clothing and transportation. Food Bank Hours:The last Thursday of the month 9:30am - 12:00pm; 1:30pm - 3:00pmFor more information, please call. ",90813,(213) 251-3432,Long Beach,Catholic Charities Long Beach Community Service Center,https://www.foodpantries.org/gallery/37097_ca_90813_catholic-charities-long-beach_ftt.xx&oh=6baff349475c252df426cbbc9f26631d&oe=5D01D1CA,123 E. 14th Street,https://schema.org
PostalAddress,CA,LocalBusiness,"Hours: Lunch Mononday - Thursday 12:00p Dinner 7 days a week 6;00pmFor more information, please call. ",90813,(562) 591-1292,Long Beach,Long Beach Rescue Mission,https://www.foodpantries.org/gallery/37820_long_beach_r-Long_B-90813_mtn.,1430 Pacific Ave.,https://schema.org
PostalAddress,CA,LocalBusiness,"Hours: The 4th Thursday of every month10:00am - 11:00amFor more information, please call. ",90808,(562) 421-9374,Long Beach,Parkcrest Church (Heartwell),https://www.foodpantries.org/gallery/38354_parkcrest-church-heartwell_unf.jpg,3936 Woodruff  Ave,https://schema.org
PostalAddress,CA,LocalBusiness,"Union Rescue Mission serves three meals a day, every day of the year. Arrangements can be made to provide infant formula, baby food and sack lunches to be taken to school. Alternate phone: (213) 612-0264.",90013,(213) 347-6300,Los Angeles,Union Rescue Mission,https://www.foodpantries.org/gallery/5_union-rescue-mission_wyg.jpg,545 S. San Pedro Street,https://schema.org
PostalAddress,CA,LocalBusiness,APLA Food Bank offers assistance to people with HIV/AIDS. They offer pre-bagged groceries to clients including fresh and frozen items. Hours: Thursday 10:30am - 4:00pm. Please call for more information on eligibility and other program details.,91605,213-201-1600,Los Angeles,APLA Food Bank,https://www.foodpantries.org/gallery/372_apla-food-bank_uoy.png,611 S. Kingsley Dr.,https://schema.org
PostalAddress,CA,LocalBusiness,"We are a program that cooks and delivers free meals to the homes of persons who are home bound with life-threatening illness, We depend on volunteers for growing produce in our gardens, cooking and packing our meals, as well as office projects and special events; volunteers must make an appointment at the phone number listed.Office Hours:Monday8:00am - 4:00pmSunday8:00am - 12:00pmFor more information, please call. ",90038,(323) 845-1800,Los Angeles,Project Angel Food,https://www.foodpantries.org/gallery/438_project-angel-food_trc.jpg,922 Vine Street,https://schema.org
PostalAddress,CA,LocalBusiness,"The Los Angeles Mission has a long history of providing emergency food baskets to those in need. However, in the last six years, we have seen a dramatic increase in the number of requests for emergency food. Each week, we prepare about 40-50 baskets, filled with items donated from local markets including Albertsons. Each basket includes nutritious ingredients for preparing a balanced meal. For more information about our Emergency Food Basket Program, please call at the Anne Douglas Center.For more information, please call. ",90013,(213) 629-1227,Los Angeles,Los Angeles Mission: Food & Shelter,https://www.foodpantries.org/gallery/514_los-angeles-mission-food-shelter_ngm.jpg,303 East 5th Street,https://schema.org
PostalAddress,CA,LocalBusiness,Church food pantry for the needy in Los Angeles. Hours:Sunday 12:30pm - 2:00pm.,90025,310-473-3135,Los Angeles,Faith Tabernacle Church Pantry,https://www.foodpantries.org/gallery/1946_ca-faith_tabernacle_church_pantry_pgf.jpg,2147 Purdue Ave.,https://schema.org
PostalAddress,CA,LocalBusiness,"Church food pantry for the needy.Hours:Monday, Wednesday, Friday1:0pm - 3:00pmFor more information, please call. ",90018,(323) 703-5868,Los Angeles,Holman United Methodist Church Food Pantry,https://www.foodpantries.org/gallery/1948_ca-holman_united_methodist_church_food_pantry_utq.png,3320 W. Adams Blvd.,https://schema.org
PostalAddress,CA,LocalBusiness,"Food pantry providing groceries to the needy. Hours:Tuesday and Thursday 9:00am - 12:00pm and 1:00pm - 3:00pmFor more information, please call. ",90066,(310) 390-5034,Los Angeles,St. Gerard's Social Service Food Pantry,https://www.foodpantries.org/gallery/no_photo_3.jpg,4439 Inglewood Blvd.,https://schema.org
PostalAddress,CA,LocalBusiness,"Location: University Student Union, Room 308E (across from the Los Angeles Room),.The Food Pantry Hours: Wednesday:11:00am – 1:00pm 3:00pm - 5:00pm Currently enrolled Cal State LA students are eligible to pick up pre-packaged food bags. For more information, please call. ",90032,(323) 343-3103,Los Angeles,Cal State LA Food Pantry,https://www.foodpantries.org/gallery/no_photo_3.jpg,5151 State University Drive,https://schema.org
PostalAddress,CA,LocalBusiness,"The WEST pantry is located on the south side of Pico Blvd. one-half block west of Robertson Ave. Metered street parking is available on Pico Blvd. and surrounding streets as well as in a parking lot located just a few doors west of the building.  Pantry Hours: Monday - Thursday 10:00am - 1:30pmSunday9:00am - 12:00pmFor more information, please call.   ",90035,(310) 288-0286,Los Angeles,SOVA West Food Pantry,https://www.foodpantries.org/gallery/32317_ca-sova_west_food_pantry_zqp.gif,8846 W. Pico Blvd,https://schema.org
PostalAddress,CA,LocalBusiness,Hours: &nbsp;&nbsp; Monday - Friday 8:00 am - 6:00 pmSaturday8:00 am - 3:00 pmGoals and Services- Distribute high quality foods and non-food essentials to nonprofit agencies that serve the hungry.- Strengthen agencies directly responsible for distributing food and non-food items.- Extend Food Bank services to under-served communities within our service area.- Find ways to eliminate hunger.- Draw from our financial resources in effort to achieve our mission.Community Benefit,90015,(213) 746-2227,Los Angeles,World Harvest Food Bank,https://www.foodpantries.org/gallery/33204_world-harvest-food-bank_jpt.jpg,3200 S Grand Ave.,https://schema.org
PostalAddress,CA,LocalBusiness,The mission of the Los Angeles Regional Food Bank is to mobilize resources to fight hunger in our community.To fulfill our mission we:Source and acquire food and other products and distribute to needy people through charitable agencies or directly through programs.Energize the community to get involved and support hunger relief.Conduct hunger education and awareness campaigns and advocate for public policies that alleviate hunger.Our vision is that no one goes hungry in Los Angeles County.For more infor,90058,(323) 234-3030,Los Angeles,Los Angeles Regional Foodbank,https://www.foodpantries.org/gallery/33547_los-angeles-regional-foodbank_tfy.jpg,1734 E. 41st Street,https://schema.org
PostalAddress,CA,LocalBusiness,"Food pantry. Meals Hours: Monday 7:30am - 8:00am Tuesday - Friday 7:30am - 9:00amSaturday 8:30am - 10:00amFor more information, please call. ",90015,(213) 747-5347,Los Angeles,St. Francis Center,https://www.foodpantries.org/gallery/37823_st._francis_-Los_An-90015_olq.jpg,1835 S. Hope Street,https://schema.org
PostalAddress,CA,LocalBusiness,"We are here to fight against hunger in our community. All community residents are welcome to come get free groceries. We have more than enough to share with you. No donations necessary. Just bring a bag to fill with can goods, meats, produce, dairy and bread products. Faithful Service... We are here to help close the gap of hunger in our community   ",90018,(323) 735-7162,Los Angeles,Faithful Service Community Development Corporation,https://www.foodpantries.org/gallery/38345_faithful-service-community-giving-program_eqg.jpg,1416 W 37th Drive,https://schema.org
PostalAddress,CA,LocalBusiness,"They serve three hot, nutritious meals daily to anyone who walks through their doors. Meal Hour:Breakfast:6:30 am Special Guests and Families6:45 am - 7:15 am General PopulationLunch:12:15 pm &nbsp;Special Guests and Families12:30 pm - 1 pm General Population*NO lunch on Sunday* Dinner:4:30 pm Special Guests and Families4:45 pm - 5:15 pm General PopulationSome children come in for breakfast with their famili",90014,(213) 624-9258,Los Angeles,The Midnight Mission,https://www.foodpantries.org/gallery/38582_the-midnight-mission_auv.jpg,601 South San Pedro Street,https://schema.org
PostalAddress,CA,LocalBusiness,"Since 1963, MAOF has been providing comprehensive human services to all Californians through programs in early childhood education and family services, job-training, financial literacy, Food Bank, and senior lifestyle programs.Under Senior Department called SHIA. Please call for more information. ",90640,(323) 890-9600,Montebello,Mexican American Opportunity Foudation - MAOF,https://www.foodpantries.org/gallery/36647_mexican-american-opportunity-foudation_ogo.jpg,401 N Garfield Ave,https://schema.org
PostalAddress,CA,LocalBusiness,"Food pantry.Hours:1st and 3rd Thursday of the month12:30pm - 1:30pmFor more information, please call. ...",90660,(562) 777-5134,Pico Rivera,Calvary Pico Rivera Community Outreach,https://www.foodpantries.org/gallery/no_photo_1.jpg,4211 Columbia Ave,https://schema.org
PostalAddress,CA,LocalBusiness,"Regional Native American Food Bank serving all communities throughout  Southern California. We distribute 100 lb family pack program for  agencies support, aide with food distributions to local pantries,  homeless outreaches, support local government with emergency food  source, youth organizations,  and veteran support. HoursMonday - Friday8:00am - 4:00pmSaturday 8:00am - 2:00pmOpen most holidays.For more information, please call. ...",91733,(626) 442-4273,South El Monte,God Provides Food Bank - Native American Food Bank,https://www.foodpantries.org/gallery/no_photo_2.jpg,2453 Troy Ave.,https://schema.org
PostalAddress,CA,LocalBusiness,"The Los Angeles Regional Food Bank provides food to low-income seniors (60+). Requirements: Income verification and picture identification are required to receive the food.Food Pantry Hours:4th Monday of every month9:00am - 11:00amFor more information, please call. ...",91733,(626) 575-5431,South El Monte,San Gabriel Valley Service Center ,https://www.foodpantries.org/gallery/no_photo_1.jpg,1441 Santa Anita Avenue,https://schema.org
PostalAddress,CA,LocalBusiness,"Food Distribution Hour:Saturday9:00am to 12:00pmFor more information, please call....",90241,(562) 862-2438,Downey,Food Help,https://www.foodpantries.org/gallery/no_photo_3.jpg,10909 New Street,https://schema.org
PostalAddress,CA,LocalBusiness,"Distributes groceries.Hours:Tuesday and Thursday (except holidays)For more information, please call....",91731,(626) 579-2190,El Monte,Our Saviour Center Food Pantry,https://www.foodpantries.org/gallery/no_photo_2.jpg,4368 Santa Anita Ave,https://schema.org
PostalAddress,CA,LocalBusiness,"The Valley Food Bank was established in 2001 to serve the food insecure in the San Fernando Valley. Our warehouse facility is a central hub that collects, processes, and distributes surplus food at no-charge to a network of rescue centers, food pantries, and soup kitchens to provide hot nutritious meals and food baskets to the homeless and needy throughout the community.For more information, please call.",91331,818 510-4140,North Hollywood,Valley Food Bank,https://www.foodpantries.org/gallery/626_valley-food-bank_gyo.png,12701 Van Nuys Blvd. Suite A,https://schema.org
PostalAddress,CA,LocalBusiness,"We distribute food.Hours:The last Saturday of month 9:00am to 12:00pmFood distribution is one box per family, if picking up for someone else you must first have that person fill out a form authorizing you  to do so.Requirements:Must bring a copy of ID of person authorizing you.For more information, please call. ",90650,(562) 926-3147,Norwalk,Las Buenas Nuevas Church,https://www.foodpantries.org/gallery/38831_ca_90650_las-buenas-nuevas-church_gir.jpg,11910 Alondra Blvd.,https://schema.org
PostalAddress,CA,LocalBusiness,"The Norwalk Social Services Center offers a wide range of emergency and support services to residents in crisis situations. Our goal is to assist individuals and families, whose resources have been exhausted, stabilize their situation and seek long-term solutions. Offer Emergency Food Pantry. Adults 60 years and older are welcome to enjoy hot nutritious meals.Hours:Monday - Friday 11:30amFor more information, please call.",90650,(562) 929-5544,Norwalk,Norwalk Social Services Food Pantry,https://www.foodpantries.org/gallery/37822_norwalk_soci-Norwal-90650_hzx.png,12929 Alondra Blvd.,https://schema.org
PostalAddress,CA,LocalBusiness,"Food Distribution Hours:Every Thursday 8:00am to 10:00amCanned foods, bread and meats....",90706,(562) 920-7796,Bellflower,St Dominic Savio Church,https://www.foodpantries.org/gallery/no_photo_3.jpg,13400 Bellflower BLVD,https://schema.org
PostalAddress,CA,LocalBusiness,"Hours: The 2nd and 4th Thursday 4:00am - 6:00pmFor more information, please call....",90706,(562) 866-6668,Bellflower,St George's Church,https://www.foodpantries.org/gallery/no_photo_9.jpg,15725 Cornuta Ave,https://schema.org
PostalAddress,CA,LocalBusiness,"Hours: Friday 9:00am - 10:30am  Sign in at 8:am Canned goods, produce and groceries...",90706,(562) 867-0714,Bellflower,Holy Redeemer Church,https://www.foodpantries.org/gallery/no_photo_7.jpg,14515 Blain ave,https://schema.org
PostalAddress,CA,LocalBusiness,"Food Distribution Hours:  Last Saturday of every month12:00pm to 2:00pmFood available and lunch until gone For more information, please call. ...",90706,(562) 644-2343,Bellflower,Warrior Center - Palm Street Park,https://www.foodpantries.org/gallery/no_photo_5.jpg,14515 Blaine Ave.,https://schema.org
PostalAddress,CA,LocalBusiness,"For more information, please call....",90706,(562) 866-1812,Bellflower,Bethany Church,https://www.foodpantries.org/gallery/no_photo_3.jpg,17054 Bixby Ave,https://schema.org
PostalAddress,CA,LocalBusiness,"Hours:Soup Kitchen, Hot Meal6:00pm - 7:00pmFor more information, please call. ",93550,(661) 266-3400,Palmdale,Grace's Palmdale Soup Kitchen at Desert Winds Church,https://www.foodpantries.org/gallery/33923_rilkcvvywe.jpg,38117 13th Street E,https://schema.org
PostalAddress,CA,LocalBusiness,"Hours:12:00pm Sandwich Shoppe, Hot MealFor more information, please call....",93534,(661) 942-0419,Lancaster,United Methodist Church,https://www.foodpantries.org/gallery/no_photo_8.jpg,918 West Avenue J,https://schema.org
PostalAddress,CA,LocalBusiness,DCCI Helps is a community outreach program that at the moment services the whole Antelope Valley area. Hours:The 3rd Saturday of the monthPlease call for time We do emergency/ clothing once a week for families in need and individuals with proof of residence in the antelope valley area. Telephone appointments only. We also have a ton of other resources once you fill out the application of needs that you require.Business Hours:Monday - Friday 9:00am - 2:00pm...,93534,(661) 582-8177,Lancaster,Destiny Christian Center International,https://www.foodpantries.org/gallery/no_photo_9.jpg,44628 10th Street W,https://schema.org
PostalAddress,CA,LocalBusiness,"Hours:Monday  9:00am - 10:00am Food Bags, Meal/ClothesFor more information, please call. ...",93534,(661) 942-3222,Lancaster,St. Vincent de Paul Lancaster,https://www.foodpantries.org/gallery/no_photo_5.jpg,45058 Trevor Avenue,https://schema.org
PostalAddress,CA,LocalBusiness,"Helping Hands Feeding Children has a food drive.Hours Every 2nd and 4th Saturday of the month 10:00am - 11:00amThe Office Hours Tuesday-Friday 8:30am - 4:30pmFor more information, please call. ...",93534,(661) 317-5915,Lancaster,Helping Hands Feeding Children,https://www.foodpantries.org/gallery/no_photo_9.jpg,154 East Ave I,https://schema.org
PostalAddress,CA,LocalBusiness,"Provides: Food pantry, hot meals, infant eeds, hygiene kits, clothing and classes.Hours:Tuesday10:00am - 1:00pmWednesday10:0am (Spanish Seeking)1:00ampm (Orientation)Thursday10:00am - 1:00pmDonations: Are accepted Monday through Friday from 9:00am - 3:300pmFor more information, please call....",93534,(661) 940-5272,Lancaster,Grace Resource Center,https://www.foodpantries.org/gallery/no_photo_8.jpg,45134 N. Sierra Highway,https://schema.org
PostalAddress,CA,LocalBusiness,Food Hours:Last names A-K 1st and 4th Friday of the month. Last names L-V 2nd and 4th Friday of the month  Celebrate recovery at 6:pm,90723,(562) 533-6820,Paramount,Emmanual Church,https://www.foodpantries.org/gallery/38358_emmanual-church_udm.jpg,15941 Virginia Ave,https://schema.org
PostalAddress,CA,LocalBusiness,"Food pantry.Hours:1st and 3rd Thursday of the month12:30pm - 1:30pmFor more information, please call. ",90660,(562) 777-5134,Pico Rivera,Calvary Pico Rivera Community Outreach,https://www.foodpantries.org/gallery/37821_corys_kitche-Pico_R-90660_cqf.jpg,4211 Columbia Ave,https://schema.org
PostalAddress,CA,LocalBusiness,"Since 1963, MAOF has been providing comprehensive human services to all Californians through programs in early childhood education and family services, job-training, financial literacy, Food Bank, and senior lifestyle programs.Under Senior Department called SHIA. Please call for more information. ...",90640,(323) 890-9600,Montebello,Mexican American Opportunity Foudation - MAOF,https://www.foodpantries.org/gallery/no_photo_5.jpg,401 N Garfield Ave,https://schema.org
PostalAddress,CA,LocalBusiness,"Food Distribution Hour:Saturday9:00am to 12:00pmFor more information, please call....",90241,(562) 862-2438,Downey,Food Help,https://www.foodpantries.org/gallery/no_photo_7.jpg,10909 New Street,https://schema.org
PostalAddress,CA,LocalBusiness,"The Los Angeles Regional Food Bank provides food to low-income seniors (60+). Requirements: Income verification and picture identification are required to receive the food.Food Pantry Hours:4th Monday of every month9:00am - 11:00amFor more information, please call. ...",91733,(626) 575-5431,South El Monte,San Gabriel Valley Service Center ,https://www.foodpantries.org/gallery/no_photo_5.jpg,1441 Santa Anita Avenue,https://schema.org
PostalAddress,CA,LocalBusiness,"Regional Native American Food Bank serving all communities throughout  Southern California. We distribute 100 lb family pack program for  agencies support, aide with food distributions to local pantries,  homeless outreaches, support local government with emergency food  source, youth organizations,  and veteran support. HoursMonday - Friday8:00am - 4:00pmSaturday 8:00am - 2:00pmOpen most holidays.For more information, please call. ...",91733,(626) 442-4273,South El Monte,God Provides Food Bank - Native American Food Bank,https://www.foodpantries.org/gallery/no_photo_9.jpg,2453 Troy Ave.,https://schema.org
PostalAddress,CA,LocalBusiness,"Food Distribution Hours:Every Thursday 8:00am to 10:00amCanned foods, bread and meats....",90706,(562) 920-7796,Bellflower,St Dominic Savio Church,https://www.foodpantries.org/gallery/no_photo_7.jpg,13400 Bellflower BLVD,https://schema.org
PostalAddress,CA,LocalBusiness,"Hours:Monday - Thurday9:00am - 3:00pmEmergency Food Assistance; location in Ontario, Pomona, Claremont and San DimasEmergency Housing Program. For more information, please call. ",91768,(909) 622-3806,Pomona,Inland Valley Hope Partners,https://www.foodpantries.org/gallery/33605_inland-valley-hope-partners_phr.jpg,1753 N. Park Ave.,https://schema.org
PostalAddress,CA,LocalBusiness, The Human Services Program is devoted to providing programs and/or services that support individuals and families in resolving problems and improving their quality of life.  Some of our services include:      Uplifting the community by providing hunger relief through our bi-monthly Feeding our Friends distribution of food to needy families.     Implementing programs and/or services that satisfy gaps of need for the under-served.     Partnering with community leaders and organizations through the annual Christmas Collabo,91767,(909) 621-5369,Pomona,CUSH Foundation,https://www.foodpantries.org/gallery/33743_cush-foundation_pwd.png,2343 N. San Antonio Avenue,https://schema.org
PostalAddress,CA,LocalBusiness,"Serves: The greater Los Angeles and Inland Empire.  Free Lunch Program 100 lb Family Pack Program Group homes and sober living food support Pantries pick up program Direct support for LASD food outreaches.  Hours: Monday - Saturday 8:00am - 4:00pmFor more information, please call. ",91767,(626) 200-0356,Pomona,God Provides Ministry Food Bank,https://www.foodpantries.org/gallery/38335_god-provides-ministry-food-bank_xst.jfif,284 E. Holt Ave.,https://schema.org
PostalAddress,CA,LocalBusiness,"Monthly assistance food emergency program. Provides monthly assistance to homeless individuals or families and once-every-two-months assistance to those with an address. Participants are given a box of food generally including meat, bread, eggs, and miscellaneous foodstuffs, depending on availability. Bus vouchers are also available.Hours: Mondays through Fridays 8am to 12 noon, 1pm to 4pm. ",91767,(909) 623-1579,Pomona,Pomona Salvation Army Emergency Food,https://www.foodpantries.org/gallery/no_photo_10.jpg,490 E. La Verne Ave.,https://schema.org
PostalAddress,CA,LocalBusiness,"Emergency food assistanceWalk in at the specified time to receive food. Call to confirm current distribution times.Other Services1. Providing programs for at-risk youth;2. Educational and tutoring programs for all ages;3. Feeding those who need food;4. Conducting vocational training forDrop-outs, disadvantaged, and displaced individuals;5. Providing and developing jobs;6. Providing educational assistance;7. Providing housing for the homelessand low-moderate income individuals;8. Pr",91766,(909) 622-0094,Pomona,For Christ's Sake Economic Development Corporation Pomona,https://www.foodpantries.org/gallery/no_photo_9.jpg,727 W 12th Street,https://schema.org
PostalAddress,CA,LocalBusiness,"Clothing and Furniture Ministries and Food PantryPurpose Church distributes gently used furniture to families in need. Our church donates the items in clean, working condition, dressers, dining rooms sets, refrigerators, microwaves, and beds. The Clothing Room Hours: Tuesday 9:00am - 11:00amOffers gently used clothing, shoes and linens. Donations: May be dropped off during the week at our Administration Center.Monthly Homeless OutreachEvery third Saturday, volunteers help fe",91768,(909) 629-5277,Pomona,Purpose Church Food Pantry,https://www.foodpantries.org/gallery/38527_purpose-church-food-pantry_dmm.png,586 N. Main Street,https://schema.org
PostalAddress,CA,LocalBusiness,"Food Pantry Hours: 2nd Monday of Every Month10:00am - 12:00pmHOT BREAKFAST PROGRAMSServing the homeless once a monthProvide encouragement and counselingProvide supplies/toiletriesFAMILY PROGRAMSCounseling servicesFood PantryResource servicesReferral ServicesFor more information, please call. ",91766,(951) 212-2031,Pomona,Angels Who Care - White Avenue Baptist Church,https://www.foodpantries.org/gallery/38528_angels-who-care_kop.jpg,675 S. White Avenue,https://schema.org
PostalAddress,CA,LocalBusiness,"Our Food Security Program helps some 4,000 no and low income residents of the Inland Valley access high-quality, healthy food resources each month with 5 program centers located in Pomona, Ontario, San Dimas, Claremont and South Pomona plus 2 once/month food distributions in Upland and Chino.What We DoAt our sites,clients are provided with a 4-5 day supply of food every 30 days (homeless every two weeks). Families may also receive fresh produce through our partnership with Amy's Farm (a working farm that donates a sizeable",91761,(909) 622-3806,Pomona, Inland Valley Hope Partners - Sova Program Center,https://www.foodpantries.org/gallery/38530_sova-program-center_meb.jpg,1753 N Park Ave,https://schema.org
PostalAddress,CA,LocalBusiness,"Free Meals Hours:Sunday 2:00pmFood Pantry Hours:Sunday3:45pm At Helping Hands, Caring Hearts, we strive to show God's love in a practical way by serving home cooked meals to homeless men and women throughout the Pomona Valley on a weekly basis. For more information, please call. ",91769,(909) 973-2422,Pomona,Helping Hands Caring Hearts,https://www.foodpantries.org/gallery/38534_helping-hands-caring-hearts_zxt.jpg,480 W. Monterey Ave.,https://schema.org
PostalAddress,CA,LocalBusiness,"Requirements:Photo IDVerofocation of incomeProop of address Hours:Thursday9:30am - 3:30pmFor more information, please call. ",91768,(909) 622-3806,Pomona,Inland Valley Hope Partners Urban Mission Ourtreach,https://www.foodpantries.org/gallery/38898_ca_91768_inland-valley-hope-partners-urban-mission-ourtreach_xqy.jpg,810 South White Ave,https://schema.org
PostalAddress,CA,LocalBusiness,"Hours:Friday4:00pmFor more information, please call. ",,(909) 593-7070,Pomona,New Life Community,https://www.foodpantries.org/gallery/no_photo_7.jpg,275 E Foothill Blvd,https://schema.org
PostalAddress,CA,LocalBusiness,"Hours:Monday - Saturday8:00am - 4:00pm For more information, please call. ",91767,(626) 200-0356,Pomona,Pomona Valley Food Bank,https://www.foodpantries.org/gallery/39236_ca_91767_pomona-valley-food-bank_eni.jpg,284 E. Holt Ave,https://schema.org
PostalAddress,CA,LocalBusiness,"Provides a food pantry.  Pantry Hours: Every 1st and 3rd Thursday of the month 9:00am - 11:00amFor more information, please call. ",90278,(310) 370-4319,Redondo Beach,Project: NEEDS,https://www.foodpantries.org/gallery/24178_project:_needs_90278_ave.jpg,2600 Nelson Avenue,https://schema.org
PostalAddress,CA,LocalBusiness,Food Pantry Hours:Monday4:00pm to 6:00pmWe are a Christ-centered non profit established by Coast Christian Fellowship to help those in our community address the complex and challenging needs they face. Our hope is that participants in Lydia's House will be filled with hope and courage as they are equipped to overcome obstacles and walk in the fullness of their God-given destiny.We are currently partnering with the LA Food Bank to give out free groceries to those in need. As we expand we hope to grow in the services ...,90505,(310) 373-8573,Torrance,Coast Christian Fellowship,https://www.foodpantries.org/gallery/no_photo_3.jpg,4000 Pacific Coast Hwy,https://schema.org
PostalAddress,CA,LocalBusiness,"New Challenge Ministries runs a Food Bank for those individuals or families in need. Hours: Monday through Saturday10:30am - 12:00pmThis service is available to anyone and is not based upon religious affiliation. This is a program to serve the community and those in need. Food offered varies from day-to-day, but usually includes milk, eggs, cheese, bread, vegetables, fruits, and/or juices.For more information, please call. ...",90501,(310) 320-4171,Torrance,New Challenge Ministries Torrance,https://www.foodpantries.org/gallery/no_photo_8.jpg,21804 Halldale Ave.,https://schema.org
PostalAddress,CA,LocalBusiness,"Food pantry which provides groceries in InglewoodFood Pantry open for those in need: 10am to Noon, Tue and Fri. Donations can be dropped off between 9am to Noon, Tue and Fri....",90302,310-677-5597,Ingelwood,Food Pantry LAX,https://www.foodpantries.org/gallery/no_photo_1.jpg,355 E. Beach St.,https://schema.org
PostalAddress,CA,LocalBusiness,"Food pantry providing groceries to the needy. Hours:Tuesday and Thursday 9:00am - 12:00pm and 1:00pm - 3:00pmFor more information, please call. ...",90066,(310) 390-5034,Los Angeles,St. Gerard's Social Service Food Pantry,https://www.foodpantries.org/gallery/no_photo_6.jpg,4439 Inglewood Blvd.,https://schema.org
PostalAddress,CA,LocalBusiness,"For more information, please call....",90291,310 822-5410,Oakland,California Food and Justice Coalition,https://www.foodpantries.org/gallery/no_photo_2.jpg,398 60th St.,https://schema.org
PostalAddress,CA,LocalBusiness,"Our Food Security Program helps some 4,000 no and low income residents of the Inland Valley access high-quality, healthy food resources each month with 5 program centers located in Pomona, Ontario, San Dimas, Claremont and South Pomona plus 2 once/month food distributions in Upland and Chino.What We DoAt our sites,clients are provided with a 4-5 day supply of food every 30 days (homeless every two weeks). Families may also receive fresh produce through our partnership with Amy's Farm (a working farm that donates a sizeable",91773,(909) 599-1103,San Dimas,San Dimas Center,https://www.foodpantries.org/gallery/no_photo_8.jpg,110 E. Third Street,https://schema.org
PostalAddress,CA,LocalBusiness,"We are open to the public  for food and clothing service.Hours:Wednesday and Thursday5:00pm - 7:00pm You must have a residence address in  one of the ten (10) cities we serve: Azusa, Baldwin Park, Claremont,  Covina, Glendora, Hacienda Heights, La Puente, La Verne, San Dimas &  West Covina. Please bring proof of residence address on your first  visit, such as a driver's license or utility bill. There is no charge  for our services and you may return once per month for up to six months:  extended programs are...",91740,(626) 852-7630,Glendora,Shepherd's Pantry Glendora,https://www.foodpantries.org/gallery/no_photo_6.jpg,657 E. Arrow Highway,https://schema.org
PostalAddress,CA,LocalBusiness,"The people who utilize our services come from all walks of life. We all experience difficult times in our lives and sometimes we need a helping hand. More than 50% of the people we serve are experiencing a very temporary situation and just need a little help to get them through a rough time. Our volunteers genuinely love helping people and go out of their way to try to meet the needs of everyone we serve. The most rewarding part is the smiles and expressions of gratitude from those we serve.Hours:Wednesday, Thursday5:00pm - ...",91740,(626) 852-7630,Glendora,Shepherd's Pantry,https://www.foodpantries.org/gallery/no_photo_5.jpg,657 E. Arrow Highway,https://schema.org
PostalAddress,CA,LocalBusiness,"Our Food Security Program helps some 4,000 no and low income residents of the Inland Valley access high-quality, healthy food resources each month with 5 program centers located in Pomona, Ontario, San Dimas, Claremont and South Pomona plus 2 once/month food distributions in Upland and Chino.What We DoAt our sites,clients are provided with a 4-5 day supply of food every 30 days (homeless every two weeks). Families may also receive fresh produce through our partnership with Amy's Farm (a working farm that donates a sizeable...",91761,(909) 622-3806,Pomona, Inland Valley Hope Partners - Sova Program Center,https://www.foodpantries.org/gallery/no_photo_8.jpg,1753 N Park Ave,https://schema.org
PostalAddress,CA,LocalBusiness,"Hours:Monday - Thurday9:00am - 3:00pmEmergency Food Assistance; location in Ontario, Pomona, Claremont and San DimasEmergency Housing Program. For more information, please call. ...",91768,(909) 622-3806,Pomona,Inland Valley Hope Partners,https://www.foodpantries.org/gallery/no_photo_2.jpg,1753 N. Park Ave.,https://schema.org
PostalAddress,CA,LocalBusiness,"Hours:Friday4:00pmFor more information, please call. ...",,(909) 593-7070,Pomona,New Life Community,https://www.foodpantries.org/gallery/no_photo_5.jpg,275 E Foothill Blvd,https://schema.org
PostalAddress,CA,LocalBusiness,Free Food Distribution HoursSATURDAY 8:30am to 10:30am  No information will not be asked! Come and get your free grocery bag!,91340,(818) 403-6432,San Fernando,Lighthouse Foursquare,https://www.foodpantries.org/gallery/no_photo_3.jpg,622 N Maclay Ave.,https://schema.org
PostalAddress,CA,LocalBusiness,"Church on Pearl distributes food.Hours:Wednesday 2:30pm - 5:30pmGroceries and food for people in need. For more information, please call. ",90405,(310) 699-2777,Santa Monica,The Church on Pearl Food Pantry,https://www.foodpantries.org/gallery/no_photo_4.jpg,1520 Pearl Street,https://schema.org
PostalAddress,CA,LocalBusiness,This is a food pantry for those in need. Hours: Sunday2:00pm - 4:00pm,90404,310-450-0919,Santa Monica,Delaware Ave. SDA Food Pantry,https://www.foodpantries.org/gallery/1945_ca-delaware_ave_sda_food_pantry_bnu.jpg,1845 20th Street,https://schema.org
PostalAddress,CA,LocalBusiness,"Food pantry provided.Hours:Tuesday 2:30pm - 4:00pmFor more information, please call. ",90401,(310) 450-4050,Santa Monica,Ocean Park Community Center Food Pantry,https://www.foodpantries.org/gallery/no_photo_7.jpg,503 Olympic Blvd,https://schema.org
PostalAddress,CA,LocalBusiness,Food pantry for the needy.Hours:Tuesday 4:00pm - 5:30pm,90404,(310) 829-4411,Santa Monica,St. Anne's Social Service Food Pantry,https://www.foodpantries.org/gallery/1950_ca-st_annes_social_service_food_pantry_qel.jpg,2013 Colorado Ave.,https://schema.org
PostalAddress,CA,LocalBusiness,"This is a food pantry offered by the Salvation Army.HoursMonday, Tuesday, Wednesday and Friday9:00am - 11:00amFor more information, please call. ",90401,(310) 451-1358,Santa Monica,Santa Monica Salvation Army Food Pantry,https://www.foodpantries.org/gallery/1954_ca-santa_monica_salvation_army_food_pantry_uwt.jpg,1533 4th Street,https://schema.org
PostalAddress,CA,LocalBusiness,"Hours:Tuesday, Wednesday, Thursday, and Friday9:00am - 12:00pmFamily Center and Food Pantry serves working poor families and individuals with case management, groceries, emergency services, educational workshops, recreational opportunities that build family cohesion...",90291,310-396-6468,Venice,St. Joseph Center Food Pantry,https://www.foodpantries.org/gallery/no_photo_1.jpg,204 Hampton Dr.,https://schema.org
PostalAddress,CA,LocalBusiness,Church food pantry for the needy in Los Angeles. Hours:Sunday 12:30pm - 2:00pm....,90025,310-473-3135,Los Angeles,Faith Tabernacle Church Pantry,https://www.foodpantries.org/gallery/no_photo_4.jpg,2147 Purdue Ave.,https://schema.org
PostalAddress,CA,LocalBusiness,"For more information, please call....",90291,310 822-5410,Oakland,California Food and Justice Coalition,https://www.foodpantries.org/gallery/no_photo_9.jpg,398 60th St.,https://schema.org
PostalAddress,CA,LocalBusiness,"Food pantry providing groceries to the needy. Hours:Tuesday and Thursday 9:00am - 12:00pm and 1:00pm - 3:00pmFor more information, please call. ...",90066,(310) 390-5034,Los Angeles,St. Gerard's Social Service Food Pantry,https://www.foodpantries.org/gallery/no_photo_1.jpg,4439 Inglewood Blvd.,https://schema.org
PostalAddress,CA,LocalBusiness,"Food pantry which provides groceries to the needy.Hours:Mondays, Wednesdays and Fridays 9:00am - 11:45am....",90232,310-838-2477,Culver City,St. Augustine's S.A.V.E.S. Food Pantry,https://www.foodpantries.org/gallery/no_photo_3.jpg,3850 Jasmine Ave.,https://schema.org
PostalAddress,CA,LocalBusiness,"Regional Native American Food Bank serving all communities throughout  Southern California. We distribute 100 lb family pack program for  agencies support, aide with food distributions to local pantries,  homeless outreaches, support local government with emergency food  source, youth organizations,  and veteran support. HoursMonday - Friday8:00am - 4:00pmSaturday 8:00am - 2:00pmOpen most holidays.For more information, please call. ",91733,(626) 442-4273,South El Monte,God Provides Food Bank - Native American Food Bank,https://www.foodpantries.org/gallery/3832_god-provides-food-bank---native-american-food-bank_hek.jpg,2453 Troy Ave.,https://schema.org
PostalAddress,CA,LocalBusiness,"The Los Angeles Regional Food Bank provides food to low-income seniors (60+). Requirements: Income verification and picture identification are required to receive the food.Food Pantry Hours:4th Monday of every month9:00am - 11:00amFor more information, please call. ",91733,(626) 575-5431,South El Monte,San Gabriel Valley Service Center ,https://www.foodpantries.org/gallery/38181_san_gabriel_-South_-91733_soo.jpg,1441 Santa Anita Avenue,https://schema.org
PostalAddress,CA,LocalBusiness,"Distributes groceries.Hours:Tuesday and Thursday (except holidays)For more information, please call....",91731,(626) 579-2190,El Monte,Our Saviour Center Food Pantry,https://www.foodpantries.org/gallery/no_photo_3.jpg,4368 Santa Anita Ave,https://schema.org
PostalAddress,CA,LocalBusiness,"Hours:Tuesday and Thursday 10:00am to 1:00pmUnless it is a holiday.  Requirements: Picture ID requested.For more information, please call. ...",91731,(626) 579-2190,El Monte,Our Saviour Center Food Pantry,https://www.foodpantries.org/gallery/no_photo_7.jpg,4368 Santa Anita Ave.,https://schema.org
PostalAddress,CA,LocalBusiness,"Food pantry.Hours:1st and 3rd Thursday of the month12:30pm - 1:30pmFor more information, please call. ...",90660,(562) 777-5134,Pico Rivera,Calvary Pico Rivera Community Outreach,https://www.foodpantries.org/gallery/no_photo_10.jpg,4211 Columbia Ave,https://schema.org
PostalAddress,CA,LocalBusiness,"Hours:Friday5:00pm - 7:00pmFor more information, please call. ...",91706,(626) 671-0090,Baldwin Park,Shepherd's Pantry - Baldwin Park,https://www.foodpantries.org/gallery/no_photo_7.jpg,13020 Francissquito Ave,https://schema.org
PostalAddress,CA,LocalBusiness,"Since 1963, MAOF has been providing comprehensive human services to all Californians through programs in early childhood education and family services, job-training, financial literacy, Food Bank, and senior lifestyle programs.Under Senior Department called SHIA. Please call for more information. ...",90640,(323) 890-9600,Montebello,Mexican American Opportunity Foudation - MAOF,https://www.foodpantries.org/gallery/no_photo_6.jpg,401 N Garfield Ave,https://schema.org
PostalAddress,CA,LocalBusiness,"Hours:Monday - Friday9:00am - 1:00pmPLEASE NOTE THAT THE ENTRANCE IS ON THE TROOST SIDE OF THE PARKING LOT ONLYFor more information, please call.",91604,(818) 980-1657,Studio City,North Hollywood Interfaith Food Pantry,https://www.foodpantries.org/gallery/33744_stiqtzvjzk.png,4390 Colfax Avenue,https://schema.org
PostalAddress,CA,LocalBusiness,"Community Distribution Center (CDC) is an Emergency Feeding Organization (EFO) providing hunger relief to families living in poverty in the San Fernando Valley. CDC solicits and distributes more than 3 million pounds of food and non-food items annually impacting nearly18,000 people. CDC operates out of a large facility (former grocery store) located in Sun Valley, CA -we are open six days a week and provides one shopping cart full of approximately 200 pounds of food per visit, providing sustenance for a family of seven for a week.  Currently",91352,(818) 759-0616,Sun Valley,Community Distribution Center,https://www.foodpantries.org/gallery/33031_community-distribution-center_kiz.png,11350 Saticoy Street,https://schema.org
PostalAddress,CA,LocalBusiness,"New Challenge Ministries runs a Food Bank for those individuals or families in need. Hours: Monday through Saturday10:30am - 12:00pmThis service is available to anyone and is not based upon religious affiliation. This is a program to serve the community and those in need. Food offered varies from day-to-day, but usually includes milk, eggs, cheese, bread, vegetables, fruits, and/or juices.For more information, please call. ",90501,(310) 320-4171,Torrance,New Challenge Ministries Torrance,https://www.foodpantries.org/gallery/38616_new-challenge-ministries-torrance_pic.jpg,21804 Halldale Ave.,https://schema.org
PostalAddress,CA,LocalBusiness,Food Pantry Hours:Monday4:00pm to 6:00pmWe are a Christ-centered non profit established by Coast Christian Fellowship to help those in our community address the complex and challenging needs they face. Our hope is that participants in Lydia's House will be filled with hope and courage as they are equipped to overcome obstacles and walk in the fullness of their God-given destiny.We are currently partnering with the LA Food Bank to give out free groceries to those in need. As we expand we hope to grow in the services ,90505,(310) 373-8573,Torrance,Coast Christian Fellowship,https://www.foodpantries.org/gallery/38617_coast-christian-fellowship_cvx.jpg,4000 Pacific Coast Hwy,https://schema.org
PostalAddress,CA,LocalBusiness,"Provides a food pantry.  Pantry Hours: Every 1st and 3rd Thursday of the month 9:00am - 11:00amFor more information, please call. ...",90278,(310) 370-4319,Redondo Beach,Project: NEEDS,https://www.foodpantries.org/gallery/no_photo_7.jpg,2600 Nelson Avenue,https://schema.org
PostalAddress,CA,LocalBusiness,"Hours: Lunch Mononday - Thursday 12:00p Dinner 7 days a week 6;00pmFor more information, please call. ...",90813,(562) 591-1292,Long Beach,Long Beach Rescue Mission,https://www.foodpantries.org/gallery/no_photo_1.jpg,1430 Pacific Ave.,https://schema.org
PostalAddress,CA,LocalBusiness,"Office Hours:Monday through Friday9:00am - 12:00pm1:30pm - 3:30pmFood  stamps  eligibility  worker  on-site:  THURSDAY  1:30pm to 3:30pm. Utility assistance, food, clothing and transportation. Food Bank Hours:The last Thursday of the month 9:30am - 12:00pm; 1:30pm - 3:00pmFor more information, please call. ...",90813,(213) 251-3432,Long Beach,Catholic Charities Long Beach Community Service Center,https://www.foodpantries.org/gallery/no_photo_9.jpg,123 E. 14th Street,https://schema.org
PostalAddress,CA,LocalBusiness,"Food pantry which provides groceries in InglewoodFood Pantry open for those in need: 10am to Noon, Tue and Fri. Donations can be dropped off between 9am to Noon, Tue and Fri....",90302,310-677-5597,Ingelwood,Food Pantry LAX,https://www.foodpantries.org/gallery/no_photo_4.jpg,355 E. Beach St.,https://schema.org
PostalAddress,CA,LocalBusiness,BREAKFAST:Served EVERY DAY 7:00-8:00 amLUNCH:Served every Saturday 11:30 am-12:30 pm &amp; the last Sunday of every month 11:30 am-12:30 pmDINNER:Served every Monday- Friday 4:30-5:30 pmThe third Sunday of every month at 3:00 pm three Mother Teresa nuns and Father Scott will serve a wonderful meal.Other Services...,90802,562-432-1440,Long Beach,Christian Outreach In Action,https://www.foodpantries.org/gallery/no_photo_8.jpg,515 East Third Street,https://schema.org
PostalAddress,CA,LocalBusiness,"The VALLEY pantry is located on the north side of Vanowen St. one-half block east of Hayvenhurst Ave. Our building is located off the street behind a row of storefronts. Follow the driveway that is between Taqueria San Jose and Costa Azul Restaurant to our parking lot.  Pantry Hours:  Sunday  9:00 am - 12:00 noon (Open every Sunday except holiday weekends) Monday  10:00 am - 1:30 pm Tuesday  10:00 am - 1:30 pm Thursday 10:00 am - 1:30 pmFor more information, please call. ",91406,(818) 988-7682,Van Nuys,SOVA Valley Food Pantry,https://www.foodpantries.org/gallery/32318_ca-sova_valley_food_pantry_xju.gif,16439 Vanowen St,https://schema.org
PostalAddress,CA,LocalBusiness,"Prince of Peace hosts the West Valley Food Pantry, and serves meals to the homeless, within other services.West Valley Food Pantry Hours: Monday-Thursday 10:00am to 3:00pm Friday10:00am to 12:00pm They distribute USDA EFAP food, as well as a large supply of donated food items, free of charge to residents of the West San Fernando Valley. Please see their website for exact service area and directions. Meal&nbsp; for the Homeless Hours:2nd and 4th Saturday of the month5:00pm",91367,(818) 346-5554,Woodland Hills,Prince of Peace Episcopal Church - Food Pantry and Community Dinner,https://www.foodpantries.org/gallery/37296_west-valley-food-pantry_cbk.jpg,5700 Rudnick Ave ,https://schema.org
